RADUGA 19 [-]           
1 17046U 86082A   17344.62059889 -.00000029  00000-0  00000-0 0  9990
2 17046  15.0952 351.0184 0005797 119.3682  63.5176  0.98459348112329
